{"type": "FeatureCollection", "features": [ {"type": "Feature", "properties": {"norad_id": 41335, "name": "SENTINEL-3A", "group": "resource", "lat": 59.50791785984067, "lon": -119.03193600752893, "alt_km": 796.2253756942746, "timestamp": "2025-12-06T22:38:42.392263+00:00", "meta": {"OBJECT_NAME": "SENTINEL-3A", "OBJECT_ID": "2016-011A", "EPOCH": "2025-12-06T15:21:19.812096", "MEAN_MOTION": 14.26743128, "ECCENTRICITY": 9.732e-05, "INCLINATION": 98.6215, "RA_OF_ASC_NODE": 45.7385, "ARG_OF_PERICENTER": 92.4388, "MEAN_ANOMALY": 267.6904, "EPHEMERIS_TYPE": 0, "CLASSIFICATION_TYPE": "U", "NORAD_CAT_ID": 41335, "ELEMENT_SET_NO": 999, "REV_AT_EPOCH": 51060, "BSTAR": 0.00014511549, "MEAN_MOTION_DOT": 3.08e-06, "MEAN_MOTION_DDOT": 0}, "tle": {"line1": "1 41335U 16011A   25340.63981264  .00000308  00000+0  14512-3 0  9994", "line2": "2 41335  98.6215  45.7385 0000973  92.4388 267.6904 14.26743128510608"}}, "geometry": {"type": "Point", "coordinates": [-119.03193600752893, 59.50791785984067]}}, {"type": "Feature", "properties": {"norad_id": 41556, "name": "ZIYUAN 3-2 (ZY 3-2)", "group": "resource", "lat": 57.6107271327994, "lon": 43.37505910924595, "alt_km": 503.261206416576, "timestamp": "2025-12-06T22:38:42.392273+00:00", "meta": {"OBJECT_NAME": "ZIYUAN 3-2 (ZY 3-2)", "OBJECT_ID": "2016-033A", "EPOCH": "2025-12-06T14:29:47.350464", "MEAN_MOTION": 15.21371581, "ECCENTRICITY": 0.00123584, "INCLINATION": 97.4052, "RA_OF_ASC_NODE": 54.8722, "ARG_OF_PERICENTER": 273.138, "MEAN_ANOMALY": 86.8442, "EPHEMERIS_TYPE": 0, "CLASSIFICATION_TYPE": "U", "NORAD_CAT_ID": 41556, "ELEMENT_SET_NO": 999, "REV_AT_EPOCH": 52870, "BSTAR": 0.00054944554, "MEAN_MOTION_DOT": 0.00012282, "MEAN_MOTION_DDOT": 0}, "tle": {"line1": "1 41556U 16033A   25340.60402026  .00012282  00000+0  54945-3 0  9992", "line2": "2 41556  97.4052  54.8722 0012358 273.1380  86.8442 15.21371581528709"}}, "geometry": {"type": "Point", "coordinates": [43.37505910924595, 57.6107271327994]}}, {"type": "Feature", "properties": {"norad_id": 41599, "name": "CARTOSAT-2C", "group": "resource", "lat": 47.12308915259767, "lon": 30.12180114331601, "alt_km": 497.8964252462756, "timestamp": "2025-12-06T22:38:42.392284+00:00", "meta": {"OBJECT_NAME": "CARTOSAT-2C", "OBJECT_ID": "2016-040A", "EPOCH": "2025-12-06T14:31:56.639424", "MEAN_MOTION": 15.19205253, "ECCENTRICITY": 0.0010998, "INCLINATION": 97.4772, "RA_OF_ASC_NODE": 37.9191, "ARG_OF_PERICENTER": 83.7699, "MEAN_ANOMALY": 276.4788, "EPHEMERIS_TYPE": 0, "CLASSIFICATION_TYPE": "U", "NORAD_CAT_ID": 41599, "ELEMENT_SET_NO": 999, "REV_AT_EPOCH": 52447, "BSTAR": 0.00039036218, "MEAN_MOTION_DOT": 8.164e-05, "MEAN_MOTION_DDOT": 0}, "tle": {"line1": "1 41599U 16040A   25340.60551666  .00008164  00000+0  39036-3 0  9990", "line2": "2 41599  97.4772  37.9191 0010998  83.7699 276.4788 15.19205253524472"}}, "geometry": {"type": "Point", "coordinates": [30.12180114331601, 47.12308915259767]}}, {"type": "Feature", "properties": {"norad_id": 41601, "name": "SKYSAT-C1", "group": "resource", "lat": -7.085269141001056, "lon": -162.58795823946951, "alt_km": 474.43732799698955, "timestamp": "2025-12-06T22:38:42.392295+00:00", "meta": {"OBJECT_NAME": "SKYSAT-C1", "OBJECT_ID": "2016-040C", "EPOCH": "2025-12-06T15:33:46.918944", "MEAN_MOTION": 15.32427117, "ECCENTRICITY": 0.00030188, "INCLINATION": 96.9826, "RA_OF_ASC_NODE": 18.0065, "ARG_OF_PERICENTER": 31.5056, "MEAN_ANOMALY": 328.6367, "EPHEMERIS_TYPE": 0, "CLASSIFICATION_TYPE": "U", "NORAD_CAT_ID": 41601, "ELEMENT_SET_NO": 999, "REV_AT_EPOCH": 52834, "BSTAR": 0.00048255106, "MEAN_MOTION_DOT": 0.00015051, "MEAN_MOTION_DDOT": 0}, "tle": {"line1": "1 41601U 16040C   25340.64845971  .00015051  00000+0  48255-3 0  9999", "line2": "2 41601  96.9826  18.0065 0003018  31.5056 328.6367 15.32427117528346"}}, "geometry": {"type": "Point", "coordinates": [-162.58795823946951, -7.085269141001056]}}, {"type": "Feature", "properties": {"norad_id": 41603, "name": "LAPAN-A3", "group": "resource", "lat": -8.700141794466942, "lon": -20.18966915806954, "alt_km": 468.4455855528122, "timestamp": "2025-12-06T22:38:42.392306+00:00", "meta": {"OBJECT_NAME": "LAPAN-A3", "OBJECT_ID": "2016-040E", "EPOCH": "2025-12-06T14:50:33.313632", "MEAN_MOTION": 15.31478358, "ECCENTRICITY": 0.0010414, "INCLINATION": 97.1422, "RA_OF_ASC_NODE": 338.3976, "ARG_OF_PERICENTER": 356.8805, "MEAN_ANOMALY": 3.2371, "EPHEMERIS_TYPE": 0, "CLASSIFICATION_TYPE": "U", "NORAD_CAT_ID": 41603, "ELEMENT_SET_NO": 999, "REV_AT_EPOCH": 52532, "BSTAR": 0.00021408081, "MEAN_MOTION_DOT": 6.444e-05, "MEAN_MOTION_DDOT": 0}, "tle": {"line1": "1 41603U 16040E   25340.61844113  .00006444  00000+0  21408-3 0  9992", "line2": "2 41603  97.1422 338.3976 0010414 356.8805   3.2371 15.31478358525323"}}, "geometry": {"type": "Point", "coordinates": [-20.18966915806954, -8.700141794466942]}}, {"type": "Feature", "properties": {"norad_id": 41604, "name": "BIROS", "group": "resource", "lat": 66.7103346854234, "lon": -4.598894196029685, "alt_km": 303.4699516603405, "timestamp": "2025-12-06T22:38:42.392316+00:00", "meta": {"OBJECT_NAME": "BIROS", "OBJECT_ID": "2016-040F", "EPOCH": "2025-12-06T14:47:42.899136", "MEAN_MOTION": 15.87194787, "ECCENTRICITY": 0.00030364, "INCLINATION": 97.0681, "RA_OF_ASC_NODE": 11.8159, "ARG_OF_PERICENTER": 162.4824, "MEAN_ANOMALY": 197.6553, "EPHEMERIS_TYPE": 0, "CLASSIFICATION_TYPE": "U", "NORAD_CAT_ID": 41604, "ELEMENT_SET_NO": 999, "REV_AT_EPOCH": 52775, "BSTAR": 0.0008085855, "MEAN_MOTION_DOT": 0.00214242, "MEAN_MOTION_DDOT": 0}, "tle": {"line1": "1 41604U 16040F   25340.61646874  .00214242  00000+0  80859-3 0  9999", "line2": "2 41604  97.0681  11.8159 0003036 162.4824 197.6553 15.87194787527751"}}, "geometry": {"type": "Point", "coordinates": [-4.598894196029685, 66.7103346854234]}}, {"type": "Feature", "properties": {"norad_id": 41727, "name": "GAOFEN-3", "group": "resource", "lat": -8.819952824086565, "lon": 165.30386999092863, "alt_km": 755.7674256870714, "timestamp": "2025-12-06T22:38:42.392326+00:00", "meta": {"OBJECT_NAME": "GAOFEN-3", "OBJECT_ID": "2016-049A", "EPOCH": "2025-12-06T15:06:44.169696", "MEAN_MOTION": 14.42211491, "ECCENTRICITY": 0.00015293, "INCLINATION": 98.404, "RA_OF_ASC_NODE": 346.3092, "ARG_OF_PERICENTER": 70.192, "MEAN_ANOMALY": 289.9434, "EPHEMERIS_TYPE": 0, "CLASSIFICATION_TYPE": "U", "NORAD_CAT_ID": 41727, "ELEMENT_SET_NO": 999, "REV_AT_EPOCH": 49089, "BSTAR": 6.525839e-05, "MEAN_MOTION_DOT": 1.72e-06, "MEAN_MOTION_DDOT": 0}, "tle": {"line1": "1 41727U 16049A   25340.62967789  .00000172  00000+0  65258-4 0  9998", "line2": "2 41727  98.4040 346.3092 0001529  70.1920 289.9434 14.42211491490899"}}, "geometry": {"type": "Point", "coordinates": [165.30386999092863, -8.819952824086565]}}, {"type": "Feature", "properties": {"norad_id": 41771, "name": "SKYSAT-C4", "group": "resource", "lat": -76.23601406596939, "lon": 36.22030622503321, "alt_km": 448.12247841774297, "timestamp": "2025-12-06T22:38:42.392337+00:00", "meta": {"OBJECT_NAME": "SKYSAT-C4", "OBJECT_ID": "2016-058B", "EPOCH": "2025-12-06T15:11:46.246560", "MEAN_MOTION": 15.41994112, "ECCENTRICITY": 9.617e-05, "INCLINATION": 96.9374, "RA_OF_ASC_NODE": 6.1184, "ARG_OF_PERICENTER": 131.1692, "MEAN_ANOMALY": 228.964, "EPHEMERIS_TYPE": 0, "CLASSIFICATION_TYPE": "U", "NORAD_CAT_ID": 41771, "ELEMENT_SET_NO": 999, "REV_AT_EPOCH": 51573, "BSTAR": 0.00054210571, "MEAN_MOTION_DOT": 0.00023061, "MEAN_MOTION_DDOT": 0}, "tle": {"line1": "1 41771U 16058B   25340.63317415  .00023061  00000+0  54211-3 0  9991", "line2": "2 41771  96.9374   6.1184 0000961 131.1692 228.9640 15.41994112515738"}}, "geometry": {"type": "Point", "coordinates": [36.22030622503321, -76.23601406596939]}}, {"type": "Feature", "properties": {"norad_id": 41772, "name": "SKYSAT-C5", "group": "resource", "lat": -20.929273348977013, "lon": 27.649633471516726, "alt_km": 466.182805645155, "timestamp": "2025-12-06T22:38:42.392347+00:00", "meta": {"OBJECT_NAME": "SKYSAT-C5", "OBJECT_ID": "2016-058C", "EPOCH": "2025-12-06T10:13:28.362144", "MEAN_MOTION": 15.3548683, "ECCENTRICITY": 0.00026781, "INCLINATION": 97.0763, "RA_OF_ASC_NODE": 24.4294, "ARG_OF_PERICENTER": 119.642, "MEAN_ANOMALY": 240.5092, "EPHEMERIS_TYPE": 0, "CLASSIFICATION_TYPE": "U", "NORAD_CAT_ID": 41772, "ELEMENT_SET_NO": 999, "REV_AT_EPOCH": 51419, "BSTAR": 0.00051444756, "MEAN_MOTION_DOT": 0.00017685, "MEAN_MOTION_DDOT": 0}, "tle": {"line1": "1 41772U 16058C   25340.42602271  .00017685  00000+0  51445-3 0  9997", "line2": "2 41772  97.0763  24.4294 0002678 119.6420 240.5092 15.35486830514191"}}, "geometry": {"type": "Point", "coordinates": [27.649633471516726, -20.929273348977013]}}, {"type": "Feature", "properties": {"norad_id": 41773, "name": "SKYSAT-C2", "group": "resource", "lat": -49.818151750320766, "lon": 14.126159122810325, "alt_km": 462.23935775681275, "timestamp": "2025-12-06T22:38:42.392357+00:00", "meta": {"OBJECT_NAME": "SKYSAT-C2", "OBJECT_ID": "2016-058D", "EPOCH": "2025-12-06T15:03:05.512896", "MEAN_MOTION": 15.37067321, "ECCENTRICITY": 0.000482, "INCLINATION": 97.0359, "RA_OF_ASC_NODE": 5.4138, "ARG_OF_PERICENTER": 50.0796, "MEAN_ANOMALY": 310.0873, "EPHEMERIS_TYPE": 0, "CLASSIFICATION_TYPE": "U", "NORAD_CAT_ID": 41773, "ELEMENT_SET_NO": 999, "REV_AT_EPOCH": 51542, "BSTAR": 0.00050616623, "MEAN_MOTION_DOT": 0.00018311, "MEAN_MOTION_DDOT": 0}, "tle": {"line1": "1 41773U 16058D   25340.62714714  .00018311  00000+0  50617-3 0  9993", "line2": "2 41773  97.0359   5.4138 0004820  50.0796 310.0873 15.37067321515423"}}, "geometry": {"type": "Point", "coordinates": [14.126159122810325, -49.818151750320766]}}]}